0 METEOR 2-17 DEB
1 31400U 88005V   13281.10328382  .00001485  00000-0  12352-2 0  3943
2 31400 082.5334 053.1364 0010935 099.5813 260.6709 13.87971815343673
0 METEOR 2-17 DEB
1 31400U 88005V   13284.05889080  .00001514  00000-0  12598-2 0  3953
2 31400 082.5335 050.7687 0010471 087.9006 272.3436 13.87981478344084
0 METEOR 2-17 DEB
1 31400U 88005V   13285.64481276  .00001553  00000-0  12920-2 0  3967
2 31400 082.5327 049.4975 0009696 076.7737 283.4548 13.87987558344301
0 METEOR 2-17 DEB
1 31400U 88005V   13287.01447192  .00001566  00000-0  13028-2 0  3974
2 31400 082.5361 048.4039 0010174 083.5285 276.7243 13.87992239344495
0 METEOR 2-17 DEB
1 31400U 88005V   13289.03290609  .00001593  00000-0  13252-2 0  3987
2 31400 082.5320 046.7848 0010607 080.6494 279.6023 13.87999203344777
0 METEOR 2-17 DEB
1 31400U 88005V   13291.05132875  .00001691  00000-0  14070-2 0  3991
2 31400 082.5368 045.1740 0012646 084.2462 276.0914 13.88008992345052
0 METEOR 2-17 DEB
1 31400U 88005V   13293.06972579  .00001748  00000-0  14550-2 0  4006
2 31400 082.5401 043.5637 0012782 077.5769 282.7245 13.88017765345333
0 METEOR 2-17 DEB
1 31400U 88005V   13294.58351862  .00001875  00000-0  15615-2 0  4015
2 31400 082.5332 042.3466 0011403 052.9025 307.4352 13.88027513345543
0 METEOR 2-17 DEB
1 31400U 88005V   13295.01600708  .00001897  00000-0  15795-2 0  4024
2 31400 082.5347 042.0019 0012382 062.6977 297.5654 13.88029888345609
